OBJECT A                
1 44879U 19093A   20156.09177132  .00000102  00000-0  19862-4 0  9991
2 44879  97.9575 232.2136 0016565  82.0767 278.2331 14.81401400 24722
OBJECT B                
1 44880U 19093B   20156.36129456  .00000133  00000-0  23736-4 0  9998
2 44880  97.9582 232.4860 0016798  81.8950 278.4164 14.81415556 24753
OBJECT C                
1 44881U 19093C   20156.42507643 -.00000019  00000-0  43844-5 0  9991
2 44881  97.9579 232.5653 0016094  79.8007 280.5006 14.81431054 24761
OBJECT D                
1 44882U 19093D   20156.42057954  .00000177  00000-0  29353-4 0  9999
2 44882  97.9614 232.6372 0017822  82.9067 277.4167 14.81498572 24763
CBERS 4A                
1 44883U 19093E   20156.41427927  .00000040  00000-0  11782-4 0  9996
2 44883  97.9581 232.5859 0001356  88.9501 271.1848 14.81521359 24778
OBJECT F                
1 44884U 19093F   20156.38418296  .00000191  00000-0  30944-4 0  9990
2 44884  97.9559 232.5697 0015327  88.5367 271.7602 14.81818846 24766
FLORIPASAT-1            
1 44885U 19093G   20156.02351772  .00000202  00000-0  32117-4 0  9994
2 44885  97.9573 232.2976 0016215  91.7187 268.5885 14.82028234 24710
OBJECT H                
1 44886U 19093H   20156.45575786  .00000145  00000-0  24822-4 0  9995
2 44886  97.9589 232.8535 0016746  96.0696 264.2432 14.82373311 24784
OBJECT J                
1 44887U 19093J   20156.11901414  .00000074  00000-0  15998-4 0  9995
2 44887  97.9584 232.5079 0016659  96.8244 263.4867 14.82361591 24735
CZ-4B R/B               
1 44888U 19093K   20155.73940333  .00000433  00000-0  25652-4 0  9993
2 44888  97.8644 237.6164 0124333 172.4034 187.9117 15.11051731 25161
OBJECT L                
1 44889U 19093L   20156.02748330  .00000081  00000-0  17377-4 0  9994
2 44889  97.9552 231.9267 0017130  73.9476 286.3623 14.80777962 24625
OBJECT M                
1 44890U 19093M   20156.43488575  .00000316  00000-0  42137-4 0  9996
2 44890  97.9088 232.5976 0050313 100.5091 260.1799 14.85580634 24756
OBJECT N                
1 44891U 19093N   20156.09252800  .00000301  00000-0  40565-4 0  9996
2 44891  98.0162 234.6556 0024683 200.4784 159.5429 14.86225520 24717
